{"type":"FeatureCollection","crs":{"type":"name","properties":{"name":"EPSG:4326"}},"features":[{"type":"Feature","geometry":{"type":"Polygon","coordinates":[[[0.562475298241574,51.6178526480489],[0.54903494812593,51.5965783674318],[0.565918632574499,51.5882452407452],[0.542845150739926,51.5716273788569],[0.543034584481941,51.5346835159158],[0.518039069038669,51.5299574763116],[0.518009397956447,51.529974187534],[0.506244074750797,51.538250886583],[0.509063702337398,51.534233764957],[0.481978280556521,51.5485964223854],[0.466748362555259,51.5466955219336],[0.461697348176906,51.5536888966334],[0.427649758787028,51.5450987636088],[0.418649311114341,51.5566704690444],[0.393500848006137,51.5577113045874],[0.391753003150787,51.5671906203022],[0.38260509348446,51.5658238159282],[0.375126917595192,51.6151727242208],[0.402178788975579,51.6509822353809],[0.442935181307834,51.6466554355987],[0.446828428034759,51.626669035823],[0.458962570063275,51.6238280893913],[0.504829548466456,51.6217164518781],[0.514610695164895,51.6269646341804],[0.520822557919768,51.6187913761723],[0.562475298241574,51.6178526480489]]]},"properties":{"LAD24CD":"E07000066","LAD24NM":"Basildon"}},{"type":"Feature","geometry":{"type":"Polygon","coordinates":[[[0.781468927606894,51.9665129398374],[0.764041523766886,51.9543199847173],[0.749490995169374,51.9546895664769],[0.726311321736548,51.9058548380405],[0.699576742037492,51.9033869386171],[0.722784881185088,51.8788097167019],[0.716329384866372,51.871266789157],[0.736606592717991,51.8716795037469],[0.752925742899607,51.8631324632265],[0.750343950072329,51.853601996239],[0.733123693240879,51.8484625198606],[0.741661212702895,51.8396713316816],[0.71189845864403,51.8345571434412],[0.72133207104262,51.8302361245514],[0.708908943887238,51.8189042144186],[0.697269448750306,51.8291268101762],[0.678690705925375,51.8106454001748],[0.659755724554981,51.8056775000724],[0.651171909709209,51.7848868962085],[0.633340631573167,51.7761234603373],[0.647503769237281,51.7615109429792],[0.618606154498573,51.7625650160574],[0.598702028580882,51.7504160864553],[0.593365583908674,51.755448959796],[0.572098394884235,51.7519008748956],[0.523803538471986,51.8034286510635],[0.534124356295491,51.8108593479644],[0.519262342777842,51.850449213113],[0.513505104844132,51.864397465468],[0.467205417069055,51.8786564109739],[0.433015803568579,51.9247983773908],[0.421347448878639,51.9262735539957],[0.430050296461589,51.9538317537108],[0.41247571750255,51.9710612582884],[0.423622540480258,51.9732171903246],[0.42694351589013,51.9867587220801],[0.413857544868883,52.0116672011074],[0.437772204715547,52.0140945820216],[0.43141870966045,52.0389355507724],[0.394032429672931,52.0318408055017],[0.389680177472463,52.0364577020388],[0.379612827815692,52.0495627138227],[0.404638263575799,52.0655023795221],[0.438278486414546,52.0723326761505],[0.453618425016356,52.06812905901],[0.466581816156426,52.0784333613925],[0.501678783042324,52.0538526669615],[0.511130139957494,52.0598640617926],[0.542293768916435,52.0577475175233],[0.551421973504044,52.0688028928728],[0.58200345991392,52.0758516638829],[0.656900901436426,52.0854416861726],[0.684204240948651,52.0869686427704],[0.712118249483127,52.0722424679158],[0.703177564086779,52.0652732484461],[0.716263376587153,52.0486871965747],[0.69940006432446,52.0484380876781],[0.696511870071092,52.0393021679314],[0.714396590823323,52.0273187672076],[0.74063428386174,52.0312015488601],[0.738526974119553,52.01069864107],[0.761149264433513,51.9974832900682],[0.759667735030109,51.9854291115946],[0.774633327593334,51.9825916201388],[0.772261026840059,51.9704245110909],[0.781468927606894,51.9665129398374]]]},"properties":{"LAD24CD":"E07000067","LAD24NM":"Braintree"}},{"type":"Feature","geometry":{"type":"Polygon","coordinates":[[[0.402178788975579,51.6509822353809],[0.375126917595192,51.6151727242208],[0.38260509348446,51.5658238159282],[0.313035079940716,51.565818131885],[0.290289733913774,51.5642993923202],[0.269866485133475,51.5995544498121],[0.254008700235285,51.6015982007674],[0.26456196557058,51.6083206608749],[0.252194314453482,51.6177694048916],[0.224087730411796,51.6317377614501],[0.200311572516926,51.6249357566968],[0.175702646497488,51.6557918874141],[0.192990348083089,51.6530990199839],[0.190857962789022,51.6598204413937],[0.208156616441341,51.6609712025595],[0.215026596279673,51.6748526077317],[0.239133871052621,51.6741724113284],[0.232545703393613,51.6838465747311],[0.26538295701511,51.6996372208709],[0.302124818855336,51.6809654465832],[0.323061908277197,51.7141676748303],[0.333999479193368,51.717013052052],[0.346633491175168,51.6939052709416],[0.360551397063566,51.6903843538246],[0.37751794826649,51.6987196385492],[0.401497817732758,51.682421406164],[0.412560206765404,51.6708961744292],[0.400147705290572,51.6622696736843],[0.402178788975579,51.6509822353809]]]},"properties":{"LAD24CD":"E07000068","LAD24NM":"Brentwood"}},{"type":"Feature","geometry":{"type":"MultiPolygon","coordinates":[[[[0.626621157486853,51.5366038202837],[0.625920991053543,51.5322463397068],[0.609032755817432,51.5348259931939],[0.624282736272642,51.5364286600334],[0.624353117922789,51.5362943887957],[0.626621157486853,51.5366038202837]]],[[[0.632077284564213,51.5705294748463],[0.62688695736313,51.5382577881267],[0.6264533813107,51.5382290450194],[0.625793448154421,51.5381286789567],[0.608330234164142,51.5349480177817],[0.594070516162126,51.5374700989791],[0.572104604479245,51.5413511745096],[0.593931552176543,51.5350247171421],[0.622103793628072,51.5268505991767],[0.61844616442781,51.5202734656557],[0.636859412356845,51.5219357093042],[0.592630446437871,51.5121329893721],[0.573364316338746,51.5078561338129],[0.553654417595966,51.5098842008819],[0.548618769264489,51.5127240732407],[0.548030413942597,51.5157433186284],[0.543174399678314,51.5157938153054],[0.518039069038669,51.5299574763116],[0.543034584481941,51.5346835159158],[0.542845150739926,51.5716273788569],[0.565918632574499,51.5882452407452],[0.632077284564213,51.5705294748463]]]]},"properties":{"LAD24CD":"E07000069","LAD24NM":"Castle Point"}},{"type":"Feature","geometry":{"type":"Polygon","coordinates":[[[0.519262342777842,51.850449213113],[0.534124356295491,51.8108593479644],[0.523803538471986,51.8034286510635],[0.572098394884235,51.7519008748956],[0.593365583908674,51.755448959796],[0.589498158966398,51.730172715631],[0.611153169522213,51.7227872538706],[0.601865180207922,51.7102280029469],[0.612602850244079,51.6987577186458],[0.608836706871032,51.6819471162057],[0.619765914224081,51.6753398785244],[0.628712110531503,51.6395150709293],[0.648850135362967,51.6366815873574],[0.588251641752078,51.6308954325103],[0.587014881986081,51.6233664852135],[0.562475298241574,51.6178526480489],[0.520822557919768,51.6187913761723],[0.514610695164895,51.6269646341804],[0.504829548466456,51.6217164518781],[0.458962570063275,51.6238280893913],[0.446828428034759,51.626669035823],[0.442935181307834,51.6466554355987],[0.402178788975579,51.6509822353809],[0.400147705290572,51.6622696736843],[0.412560206765404,51.6708961744292],[0.401497817732758,51.682421406164],[0.37751794826649,51.6987196385492],[0.360551397063566,51.6903843538246],[0.346633491175168,51.6939052709416],[0.333999479193368,51.717013052052],[0.347451316579649,51.7304397962562],[0.346700459081854,51.7675960702433],[0.33219814337298,51.7796294016749],[0.340581328387737,51.794478163401],[0.362617227549911,51.7949069705354],[0.361570125270334,51.8011501149939],[0.384165196931081,51.7970744301577],[0.400030261770626,51.8127617163937],[0.404615009047594,51.8074224357363],[0.41432224666562,51.8142417001216],[0.403521217558056,51.8402763261121],[0.413172153800461,51.8566590347305],[0.424031521176507,51.8541587227704],[0.431060817439215,51.8318263454441],[0.445681465775623,51.8288729942028],[0.519262342777842,51.850449213113]]]},"properties":{"LAD24CD":"E07000070","LAD24NM":"Chelmsford"}},{"type":"Feature","geometry":{"type":"MultiPolygon","coordinates":[[[[0.945555009968762,51.7746984061066],[0.902361802698661,51.7737041606734],[0.901838474600217,51.7861260035955],[0.924586899694692,51.7955980326165],[0.942773993136243,51.8067462357994],[0.965846855849948,51.8086755318991],[0.999129028964842,51.8019348953273],[0.999990659498777,51.7931413458885],[0.945555009968762,51.7746984061066]]],[[[0.979672796878529,51.8466582032821],[0.980128082098004,51.8446572061397],[0.977821874363019,51.8472484179914],[0.979672796878529,51.8466582032821]]],[[[0.962589594231285,51.9771649294567],[0.970982749148486,51.962407757133],[0.998710091163988,51.9639673344844],[1.02471198883193,51.9549023606317],[1.00577987666421,51.9356019757443],[0.957633842388884,51.937310499379],[0.9312031470394,51.9197236253207],[0.957143069003518,51.903648351113],[0.948809135726053,51.8967524575798],[0.962638457357751,51.890728047488],[0.952853229415343,51.8803101601777],[0.978321077097013,51.8721615419932],[0.978104327115427,51.8540432885404],[0.965010102072273,51.8513325716398],[0.977553635413133,51.8473339492737],[0.97752217018382,51.8408910313809],[0.977496483378785,51.8356245818916],[0.966444124972138,51.8294113712916],[0.982241921164418,51.8173889196078],[0.965770545780142,51.8226326119905],[0.961930823722796,51.8331449006675],[0.955606366210376,51.8293932343511],[0.943447905287331,51.8221780818516],[0.991183789980207,51.8072530369927],[0.959908279277284,51.810232099101],[0.916172047359005,51.8114484653301],[0.920748537612709,51.8050013477555],[0.937032807865719,51.8057780254669],[0.921562931970931,51.8038538678667],[0.90414434279188,51.8042070519423],[0.8987603407289,51.7927096394806],[0.892417831703416,51.7791572852392],[0.866461939780975,51.7927924826697],[0.872288252636093,51.7832295225434],[0.848686397308784,51.7872674825876],[0.841690366688952,51.7823004679868],[0.829891035086637,51.7889983962532],[0.842862056389324,51.7810301591853],[0.836965883497606,51.7795171657761],[0.803929220202556,51.7897049444526],[0.815929110539679,51.7892471140185],[0.811854791560073,51.7991191420225],[0.77908970393259,51.81156320103],[0.754230218210509,51.8009691846771],[0.718171006764377,51.7973630066644],[0.713329896129475,51.8084596365301],[0.721663680782776,51.8100053944731],[0.708908943887238,51.8189042144186],[0.72133207104262,51.8302361245514],[0.71189845864403,51.8345571434412],[0.741661212702895,51.8396713316816],[0.733123693240879,51.8484625198606],[0.750343950072329,51.853601996239],[0.752925742899607,51.8631324632265],[0.736606592717991,51.8716795037469],[0.716329384866372,51.871266789157],[0.722784881185088,51.8788097167019],[0.699576742037492,51.9033869386171],[0.726311321736548,51.9058548380405],[0.749490995169374,51.9546895664769],[0.764041523766886,51.9543199847173],[0.781468927606894,51.9665129398374],[0.810877141632654,51.960696087649],[0.824650048979386,51.9685496072043],[0.850240124999087,51.9607666455619],[0.889748607763662,51.9734240607673],[0.925239840337455,51.9761644030686],[0.942911023064153,51.9706902942308],[0.962589594231285,51.9771649294567]]]]},"properties":{"LAD24CD":"E07000071","LAD24NM":"Colchester"}},{"type":"Feature","geometry":{"type":"Polygon","coordinates":[[[0.346700459081854,51.7675960702433],[0.347451316579649,51.7304397962562],[0.333999479193368,51.717013052052],[0.323061908277197,51.7141676748303],[0.302124818855336,51.6809654465832],[0.26538295701511,51.6996372208709],[0.232545703393613,51.6838465747311],[0.239133871052621,51.6741724113284],[0.215026596279673,51.6748526077317],[0.208156616441341,51.6609712025595],[0.190857962789022,51.6598204413937],[0.192990348083089,51.6530990199839],[0.175702646497488,51.6557918874141],[0.200311572516926,51.6249357566968],[0.138184235471144,51.6235453960564],[0.072867372178107,51.6046655224122],[0.021819035344359,51.6288327861104],[0.0227195416969588,51.6411154928849],[-0.0122596870547121,51.6462286962719],[-0.011918675972722,51.6808778146614],[-0.0197431177734428,51.7032159867463],[-0.0135105461901666,51.7422170644571],[0.00116831752025934,51.7450562052174],[0.0140290607083068,51.7643799988752],[0.0267994458047809,51.7741798994232],[0.0576635408379552,51.7796739273094],[0.0638379134948959,51.7515251895388],[0.0926004046887484,51.7361761590989],[0.102442501200667,51.7462952481072],[0.147396560148029,51.75756766783],[0.168018960489515,51.7827839802652],[0.146141158428203,51.7962437615625],[0.15830881878831,51.8135169965212],[0.172583035411387,51.8163043887035],[0.166251617449305,51.8221540076822],[0.18840408334763,51.8196416539314],[0.196683179374779,51.7957669799517],[0.231482040734041,51.7951509191276],[0.237677631557306,51.7797753265578],[0.295616775458178,51.7902650540565],[0.299365659995665,51.7718598793119],[0.346700459081854,51.7675960702433]]]},"properties":{"LAD24CD":"E07000072","LAD24NM":"Epping Forest"}},{"type":"Feature","geometry":{"type":"Polygon","coordinates":[[[0.0576635408379552,51.7796739273094],[0.146141158428203,51.7962437615625],[0.168018960489515,51.7827839802652],[0.147396560148029,51.75756766783],[0.102442501200667,51.7462952481072],[0.0926004046887484,51.7361761590989],[0.0638379134948959,51.7515251895388],[0.0576635408379552,51.7796739273094]]]},"properties":{"LAD24CD":"E07000073","LAD24NM":"Harlow"}},{"type":"Feature","geometry":{"type":"MultiPolygon","coordinates":[[[[0.787703225708633,51.722314974478],[0.770131405191014,51.7190521778146],[0.754635465091149,51.7248622640503],[0.769753859072292,51.7268272061453],[0.787703225708633,51.722314974478]]],[[[0.721175352977299,51.7306497143002],[0.726170411198278,51.7170514672186],[0.7081312928497,51.7196397994287],[0.721175352977299,51.7306497143002]]],[[[0.713329896129475,51.8084596365301],[0.718171006764377,51.7973630066644],[0.754230218210509,51.8009691846771],[0.77908970393259,51.81156320103],[0.811854791560073,51.7991191420225],[0.815929110539679,51.7892471140185],[0.803929220202556,51.7897049444526],[0.836965883497606,51.7795171657761],[0.842862056389324,51.7810301591853],[0.843301147013734,51.780760348704],[0.87681860129027,51.7793664155743],[0.877254121747701,51.779348239872],[0.877375532798772,51.7792410864057],[0.890846600983069,51.7673481099028],[0.854522812187889,51.7717623113168],[0.836829948117257,51.7739080519373],[0.834038953688148,51.7714680593757],[0.856202335021915,51.7677243467768],[0.837922163493921,51.7680984359528],[0.853088772826374,51.7645783908175],[0.850450181985127,51.7570258997477],[0.861581646941853,51.7630974254167],[0.88268796818783,51.7576845635837],[0.856195207312813,51.7437864393721],[0.847456217691314,51.747488474975],[0.853022441207034,51.7419721239549],[0.841564228506279,51.7387611270432],[0.792292155155722,51.7451913935211],[0.78863232079183,51.7366533027938],[0.776743356259106,51.7439832722289],[0.735909166676607,51.7294723806624],[0.713725924380509,51.7376063883886],[0.70552884971014,51.7238137328375],[0.699233247822315,51.7261735100147],[0.711207719500056,51.7134863748288],[0.747005618510649,51.7114693832192],[0.746033709141438,51.7048637252004],[0.769185517779274,51.7083592420955],[0.737834658420487,51.6872043975415],[0.7569367262413,51.6907263953137],[0.766957965202771,51.702744753726],[0.771581982679827,51.7040612953427],[0.797560512337364,51.707945021237],[0.793478911613865,51.7180783687658],[0.819711532255216,51.7210805836293],[0.85221387260807,51.7133086111373],[0.883930169221173,51.7356864016878],[0.89459668331371,51.7432052441897],[0.895594971327693,51.7433002781525],[0.926854202825624,51.746271580524],[0.930957904793418,51.7460290442202],[0.94900991161076,51.7294609995066],[0.939517468836879,51.6986172123987],[0.947074708616439,51.6871625185233],[0.950057791342381,51.6834964089707],[0.946473382290585,51.67740823879],[0.944305778473024,51.6739293552643],[0.942798909387176,51.6690625870125],[0.941718134645753,51.6619118143646],[0.934451544890771,51.6328371724073],[0.904316826525894,51.6225486162392],[0.887870062144279,51.6221045320486],[0.859508701402765,51.621333293687],[0.793874102045473,51.6257045953589],[0.780515125061885,51.630627558458],[0.764706130829241,51.6384700358473],[0.740346218424886,51.6325427789288],[0.648850135362967,51.6366815873574],[0.628712110531503,51.6395150709293],[0.619765914224081,51.6753398785244],[0.608836706871032,51.6819471162057],[0.612602850244079,51.6987577186458],[0.601865180207922,51.7102280029469],[0.611153169522213,51.7227872538706],[0.589498158966398,51.730172715631],[0.593365583908674,51.755448959796],[0.598702028580882,51.7504160864553],[0.618606154498573,51.7625650160574],[0.647503769237281,51.7615109429792],[0.633340631573167,51.7761234603373],[0.651171909709209,51.7848868962085],[0.659755724554981,51.8056775000724],[0.678690705925375,51.8106454001748],[0.697269448750306,51.8291268101762],[0.708908943887238,51.8189042144186],[0.721663680782776,51.8100053944731],[0.713329896129475,51.8084596365301]]]]},"properties":{"LAD24CD":"E07000074","LAD24NM":"Maldon"}},{"type":"Feature","geometry":{"type":"MultiPolygon","coordinates":[[[[0.837491435881474,51.5851768552972],[0.822949646500331,51.5648819751085],[0.808066070701758,51.5856266823064],[0.830143881186117,51.5959662399368],[0.837491435881474,51.5851768552972]]],[[[0.884470369592766,51.5685005379575],[0.866370064397508,51.5589408408895],[0.840146351266313,51.5616365017136],[0.825779682464893,51.5644666807244],[0.838649742357825,51.5814783607139],[0.840078217246046,51.5820230159602],[0.83799748353139,51.5936189637611],[0.866825862664548,51.5951863846099],[0.874374700653288,51.6141508887792],[0.887428869773476,51.6151568592981],[0.957516615699434,51.6205323075031],[0.929866948989761,51.5924463602532],[0.884470369592766,51.5685005379575]]],[[[0.764706130829241,51.6384700358473],[0.780515125061885,51.630627558458],[0.76366690345404,51.636832808787],[0.784388750256748,51.624284046674],[0.80784174099279,51.6224348465661],[0.865440433018972,51.6154309233552],[0.865024278502803,51.5982411630867],[0.854019525527156,51.5958315287175],[0.82042699550007,51.5989143525815],[0.81197035948633,51.6031307172761],[0.819073898512894,51.5975959790183],[0.796392842575854,51.58639168466],[0.764340398436962,51.5832296003571],[0.805898864585426,51.5860753265664],[0.793421858511461,51.5763923360833],[0.808114767740843,51.5787145579627],[0.817754448018668,51.5619156463209],[0.85074968781703,51.5563390968085],[0.820968405413912,51.5409207978397],[0.820841262671775,51.5408567896674],[0.819168409590216,51.5422065399787],[0.788990551027069,51.5424441254648],[0.786689932259859,51.5529433956706],[0.675333610589035,51.5728679754907],[0.638950939122342,51.5768010705084],[0.632077284564213,51.5705294748463],[0.565918632574499,51.5882452407452],[0.54903494812593,51.5965783674318],[0.562475298241574,51.6178526480489],[0.587014881986081,51.6233664852135],[0.588251641752078,51.6308954325103],[0.648850135362967,51.6366815873574],[0.740346218424886,51.6325427789288],[0.764706130829241,51.6384700358473]]]]},"properties":{"LAD24CD":"E07000075","LAD24NM":"Rochford"}},{"type":"Feature","geometry":{"type":"MultiPolygon","coordinates":[[[[1.26290375352883,51.8802172632041],[1.26374124768394,51.8730442912216],[1.25504873490394,51.8745256391288],[1.26290375352883,51.8802172632041]]],[[[1.2574502050475,51.8834653953823],[1.24459264439798,51.8688853134179],[1.22642247370622,51.8753076473301],[1.22969210008692,51.8814698847169],[1.2574502050475,51.8834653953823]]],[[[1.23395227520666,51.8936787250336],[1.24267369616314,51.8865856421055],[1.23155886770935,51.8874943155246],[1.23395227520666,51.8936787250336]]],[[[1.04771159936546,51.9594983373406],[1.06868007327798,51.9504228129223],[1.0658877932666,51.9490158900375],[1.05391752356323,51.9530014196547],[1.06186240217185,51.9459536848542],[1.11947589223361,51.9400540992031],[1.17012442357622,51.9480039399054],[1.18054781073297,51.9417523255184],[1.19934289738747,51.9408326474931],[1.22733027234651,51.9394574789771],[1.24615109918745,51.9484656678013],[1.27712034704249,51.9391679050076],[1.29089060146429,51.9487042565189],[1.29608649924292,51.9370854514572],[1.29662431207023,51.935577696944],[1.28511989010672,51.936863766016],[1.24971751246296,51.9162014774761],[1.25288221586779,51.9146004592659],[1.25799954713994,51.9120111856023],[1.25201925106467,51.9021739449092],[1.2462758961876,51.8957454709237],[1.25095577267188,51.9022401319638],[1.2341345096174,51.9032857889268],[1.22601042207041,51.903789933557],[1.21203546768351,51.8966266987864],[1.22829890044513,51.8905376428563],[1.21244096082245,51.8903639925082],[1.19901557668311,51.8847775931692],[1.20984184065484,51.8785174323401],[1.20910087485572,51.8783520537347],[1.1946745188036,51.8751310068923],[1.17819061617363,51.8714477969257],[1.19423990269444,51.8690012928159],[1.21868690650977,51.8781480414813],[1.22466705621205,51.8802991425783],[1.21158591934142,51.8663543612463],[1.22640966809504,51.8721266735649],[1.23243812432739,51.8550725789885],[1.23580028365272,51.8614440203025],[1.24921539000175,51.8623079856914],[1.25000411452171,51.8561214313976],[1.2525999938084,51.8637510718624],[1.26660493853362,51.8636494053425],[1.26914507472014,51.851778641099],[1.26993184007437,51.8636250039017],[1.26850949047767,51.8636354479088],[1.26778677553658,51.8771134465864],[1.26990057377809,51.8773056181873],[1.26400833917778,51.8861092671615],[1.26506529532702,51.885698818183],[1.28901331114762,51.8748426370701],[1.29010770037687,51.8714035032199],[1.28785232408345,51.8619807765896],[1.2676576107907,51.8445775448119],[1.25306450784584,51.8335881785456],[1.23185107371392,51.8176002589108],[1.12895098382417,51.7754386907315],[1.05472076305474,51.7695078257929],[1.04337631558113,51.7697081496043],[1.01778996965053,51.8012000188921],[1.04379112204909,51.802451291372],[1.06041598254837,51.8116940208446],[1.06420714758794,51.8172246887603],[1.06778296125308,51.8210830946411],[1.04624201209041,51.8228746297945],[1.0631773194784,51.8175486757533],[1.05443255799152,51.8108358107525],[1.01283586624298,51.804860224208],[0.984082585069526,51.835055893627],[1.02095489865661,51.834774883602],[0.985187351575367,51.8389715306761],[0.98361699498483,51.8407364924201],[0.980128082098004,51.8446572061397],[0.979672796878529,51.8466582032821],[0.977821874363019,51.8472484179914],[0.977554685169973,51.8475486051915],[0.977553635413133,51.8473339492737],[0.965010102072273,51.8513325716398],[0.978104327115427,51.8540432885404],[0.978321077097013,51.8721615419932],[0.952853229415343,51.8803101601777],[0.962638457357751,51.890728047488],[0.948809135726053,51.8967524575798],[0.957143069003518,51.903648351113],[0.9312031470394,51.9197236253207],[0.957633842388884,51.937310499379],[1.00577987666421,51.9356019757443],[1.02471198883193,51.9549023606317],[1.04771159936546,51.9594983373406]]]]},"properties":{"LAD24CD":"E07000076","LAD24NM":"Tendring"}},{"type":"Feature","geometry":{"type":"Polygon","coordinates":[[[0.389680177472463,52.0364577020388],[0.394032429672931,52.0318408055017],[0.43141870966045,52.0389355507724],[0.437772204715547,52.0140945820216],[0.413857544868883,52.0116672011074],[0.42694351589013,51.9867587220801],[0.423622540480258,51.9732171903246],[0.41247571750255,51.9710612582884],[0.430050296461589,51.9538317537108],[0.421347448878639,51.9262735539957],[0.433015803568579,51.9247983773908],[0.467205417069055,51.8786564109739],[0.513505104844132,51.864397465468],[0.519262342777842,51.850449213113],[0.445681465775623,51.8288729942028],[0.431060817439215,51.8318263454441],[0.424031521176507,51.8541587227704],[0.413172153800461,51.8566590347305],[0.403521217558056,51.8402763261121],[0.41432224666562,51.8142417001216],[0.404615009047594,51.8074224357363],[0.400030261770626,51.8127617163937],[0.384165196931081,51.7970744301577],[0.361570125270334,51.8011501149939],[0.362617227549911,51.7949069705354],[0.340581328387737,51.794478163401],[0.33219814337298,51.7796294016749],[0.346700459081854,51.7675960702433],[0.299365659995665,51.7718598793119],[0.295616775458178,51.7902650540565],[0.237677631557306,51.7797753265578],[0.231482040734041,51.7951509191276],[0.196683179374779,51.7957669799517],[0.18840408334763,51.8196416539314],[0.166251617449305,51.8221540076822],[0.17046768802496,51.8616221428385],[0.195613946593584,51.8681183077726],[0.174917119939892,51.8827850565396],[0.183853999516835,51.8935011894531],[0.124761446710298,51.8845855300936],[0.124847425135061,51.9236084030801],[0.10701203141805,51.9718178542864],[0.0964606111639592,51.9843259682049],[0.0690610114507331,51.9840425608719],[0.0681560725569507,52.0057630955662],[0.0922543378316555,52.0216539880719],[0.105736213487718,52.060261106198],[0.119077515908339,52.0599625867341],[0.128135198304803,52.0473225707854],[0.151147231222932,52.0528715575239],[0.166396143400974,52.0481907792676],[0.167570276572422,52.0549998106329],[0.189922071971941,52.0602013954013],[0.183194362384494,52.0731834544936],[0.203459400262098,52.0926741544765],[0.235208003627414,52.0890000494769],[0.251623252757855,52.076770953667],[0.276230791660398,52.0926578690959],[0.286431681080009,52.0902499148384],[0.32467398462829,52.0727832865237],[0.345932855516239,52.0497014236188],[0.389680177472463,52.0364577020388]]]},"properties":{"LAD24CD":"E07000077","LAD24NM":"Uttlesford"}}]}